{"type": "FeatureCollection", "features": [ {"type": "Feature", "properties": {"norad_id": 37927, "name": "FENGYUN 1C DEB", "group": "fengyun-1c-debris", "lat": -6.036056280994367, "lon": -48.13337733322845, "alt_km": 657.8921277633417, "timestamp": "2025-12-14T22:38:41.047476+00:00", "meta": {"OBJECT_NAME": "FENGYUN 1C DEB", "OBJECT_ID": "1999-025EPC", "EPOCH": "2025-12-13T03:22:49.865088", "MEAN_MOTION": 14.71770998, "ECCENTRICITY": 0.0007968, "INCLINATION": 98.8073, "RA_OF_ASC_NODE": 130.856, "ARG_OF_PERICENTER": 272.9948, "MEAN_ANOMALY": 87.0345, "EPHEMERIS_TYPE": 0, "CLASSIFICATION_TYPE": "U", "NORAD_CAT_ID": 37927, "ELEMENT_SET_NO": 999, "REV_AT_EPOCH": 65122, "BSTAR": 0.0058007342, "MEAN_MOTION_DOT": 0.0003637, "MEAN_MOTION_DDOT": 0}, "tle": {"line1": "1 37927U 99025EPC 25347.14085492  .00036370  00000+0  58007-2 0  9997", "line2": "2 37927  98.8073 130.8560 0007968 272.9948  87.0345 14.71770998651225"}}, "geometry": {"type": "Point", "coordinates": [-48.13337733322845, -6.036056280994367]}}, {"type": "Feature", "properties": {"norad_id": 37928, "name": "FENGYUN 1C DEB", "group": "fengyun-1c-debris", "lat": -29.869149325065333, "lon": 38.44412022949687, "alt_km": 826.2683749962225, "timestamp": "2025-12-14T22:38:41.047486+00:00", "meta": {"OBJECT_NAME": "FENGYUN 1C DEB", "OBJECT_ID": "1999-025EPD", "EPOCH": "2025-12-05T22:06:55.639584", "MEAN_MOTION": 14.37064476, "ECCENTRICITY": 0.0073466, "INCLINATION": 98.9156, "RA_OF_ASC_NODE": 214.2722, "ARG_OF_PERICENTER": 52.9241, "MEAN_ANOMALY": 307.8631, "EPHEMERIS_TYPE": 0, "CLASSIFICATION_TYPE": "U", "NORAD_CAT_ID": 37928, "ELEMENT_SET_NO": 999, "REV_AT_EPOCH": 81094, "BSTAR": 0.0011316154, "MEAN_MOTION_DOT": 3.419e-05, "MEAN_MOTION_DDOT": 0}, "tle": {"line1": "1 37928U 99025EPD 25339.92147731  .00003419  00000+0  11316-2 0  9990", "line2": "2 37928  98.9156 214.2722 0073466  52.9241 307.8631 14.37064476810940"}}, "geometry": {"type": "Point", "coordinates": [38.44412022949687, -29.869149325065333]}}, {"type": "Feature", "properties": {"norad_id": 38116, "name": "FENGYUN 1C DEB", "group": "fengyun-1c-debris", "lat": 67.98283408312489, "lon": 5.346673038883246, "alt_km": 811.1564892420602, "timestamp": "2025-12-14T22:38:41.047496+00:00", "meta": {"OBJECT_NAME": "FENGYUN 1C DEB", "OBJECT_ID": "1999-025EPM", "EPOCH": "2025-12-13T09:07:05.482848", "MEAN_MOTION": 14.17018726, "ECCENTRICITY": 0.00724721, "INCLINATION": 98.7128, "RA_OF_ASC_NODE": 26.1003, "ARG_OF_PERICENTER": 144.8988, "MEAN_ANOMALY": 233.7196, "EPHEMERIS_TYPE": 0, "CLASSIFICATION_TYPE": "U", "NORAD_CAT_ID": 38116, "ELEMENT_SET_NO": 999, "REV_AT_EPOCH": 64494, "BSTAR": 0.00072544359, "MEAN_MOTION_DOT": 1.454e-05, "MEAN_MOTION_DDOT": 0}, "tle": {"line1": "1 38116U 99025EPM 25347.37992457  .00001454  00000+0  72544-3 0  9999", "line2": "2 38116  98.7128  26.1003 0072472 144.8988 233.7196 14.17018726644947"}}, "geometry": {"type": "Point", "coordinates": [5.346673038883246, 67.98283408312489]}}, {"type": "Feature", "properties": {"norad_id": 38121, "name": "FENGYUN 1C DEB", "group": "fengyun-1c-debris", "lat": 17.965461694862956, "lon": 137.50730114202904, "alt_km": 850.4161275703382, "timestamp": "2025-12-14T22:38:41.047506+00:00", "meta": {"OBJECT_NAME": "FENGYUN 1C DEB", "OBJECT_ID": "1999-025EPS", "EPOCH": "2025-12-13T04:20:01.430304", "MEAN_MOTION": 14.21784212, "ECCENTRICITY": 0.02064826, "INCLINATION": 99.1148, "RA_OF_ASC_NODE": 138.6695, "ARG_OF_PERICENTER": 126.4735, "MEAN_ANOMALY": 235.5664, "EPHEMERIS_TYPE": 0, "CLASSIFICATION_TYPE": "U", "NORAD_CAT_ID": 38121, "ELEMENT_SET_NO": 999, "REV_AT_EPOCH": 83926, "BSTAR": 0.0016630973, "MEAN_MOTION_DOT": 4.5e-05, "MEAN_MOTION_DDOT": 0}, "tle": {"line1": "1 38121U 99025EPS 25347.18057211  .00004500  00000+0  16631-2 0  9993", "line2": "2 38121  99.1148 138.6695 0206482 126.4735 235.5664 14.21784212839268"}}, "geometry": {"type": "Point", "coordinates": [137.50730114202904, 17.965461694862956]}}, {"type": "Feature", "properties": {"norad_id": 38122, "name": "FENGYUN 1C DEB", "group": "fengyun-1c-debris", "lat": 58.98540036125983, "lon": -174.5877012821244, "alt_km": 602.7280221937035, "timestamp": "2025-12-14T22:38:41.047516+00:00", "meta": {"OBJECT_NAME": "FENGYUN 1C DEB", "OBJECT_ID": "1999-025EPT", "EPOCH": "2025-12-13T06:08:25.261152", "MEAN_MOTION": 14.42652616, "ECCENTRICITY": 0.02277513, "INCLINATION": 98.3184, "RA_OF_ASC_NODE": 349.6796, "ARG_OF_PERICENTER": 155.2121, "MEAN_ANOMALY": 206.0219, "EPHEMERIS_TYPE": 0, "CLASSIFICATION_TYPE": "U", "NORAD_CAT_ID": 38122, "ELEMENT_SET_NO": 999, "REV_AT_EPOCH": 67746, "BSTAR": 0.00066332331, "MEAN_MOTION_DOT": 2.966e-05, "MEAN_MOTION_DDOT": 0}, "tle": {"line1": "1 38122U 99025EPT 25347.25584793  .00002966  00000+0  66332-3 0  9990", "line2": "2 38122  98.3184 349.6796 0227751 155.2121 206.0219 14.42652616677463"}}, "geometry": {"type": "Point", "coordinates": [-174.5877012821244, 58.98540036125983]}}, {"type": "Feature", "properties": {"norad_id": 38124, "name": "FENGYUN 1C DEB", "group": "fengyun-1c-debris", "lat": -30.834465588064916, "lon": -54.27371433995626, "alt_km": 875.6873084716826, "timestamp": "2025-12-14T22:38:41.047526+00:00", "meta": {"OBJECT_NAME": "FENGYUN 1C DEB", "OBJECT_ID": "1999-025EPV", "EPOCH": "2025-12-13T03:48:53.053632", "MEAN_MOTION": 13.40935403, "ECCENTRICITY": 0.03557245, "INCLINATION": 97.8087, "RA_OF_ASC_NODE": 299.6458, "ARG_OF_PERICENTER": 305.0279, "MEAN_ANOMALY": 51.7953, "EPHEMERIS_TYPE": 0, "CLASSIFICATION_TYPE": "U", "NORAD_CAT_ID": 38124, "ELEMENT_SET_NO": 999, "REV_AT_EPOCH": 54587, "BSTAR": 0.00060323956, "MEAN_MOTION_DOT": 4.51e-06, "MEAN_MOTION_DDOT": 0}, "tle": {"line1": "1 38124U 99025EPV 25347.15894738  .00000451  00000+0  60324-3 0  9996", "line2": "2 38124  97.8087 299.6458 0355724 305.0279  51.7953 13.40935403545875"}}, "geometry": {"type": "Point", "coordinates": [-54.27371433995626, -30.834465588064916]}}, {"type": "Feature", "properties": {"norad_id": 38130, "name": "FENGYUN 1C DEB", "group": "fengyun-1c-debris", "lat": -41.78841771413003, "lon": 48.21700546383519, "alt_km": 1000.3213008867906, "timestamp": "2025-12-14T22:38:41.047536+00:00", "meta": {"OBJECT_NAME": "FENGYUN 1C DEB", "OBJECT_ID": "1999-025EQB", "EPOCH": "2025-11-28T09:19:02.490528", "MEAN_MOTION": 13.7720595, "ECCENTRICITY": 0.02085156, "INCLINATION": 98.6035, "RA_OF_ASC_NODE": 25.4413, "ARG_OF_PERICENTER": 263.5047, "MEAN_ANOMALY": 94.2329, "EPHEMERIS_TYPE": 0, "CLASSIFICATION_TYPE": "U", "NORAD_CAT_ID": 38130, "ELEMENT_SET_NO": 999, "REV_AT_EPOCH": 69085, "BSTAR": 0.0016964005, "MEAN_MOTION_DOT": 1.933e-05, "MEAN_MOTION_DDOT": 0}, "tle": {"line1": "1 38130U 99025EQB 25332.38822327  .00001933  00000+0  16964-2 0  9993", "line2": "2 38130  98.6035  25.4413 0208515 263.5047  94.2329 13.77205950690851"}}, "geometry": {"type": "Point", "coordinates": [48.21700546383519, -41.78841771413003]}}, {"type": "Feature", "properties": {"norad_id": 38135, "name": "FENGYUN 1C DEB", "group": "fengyun-1c-debris", "lat": -14.268982507664422, "lon": 47.92195153069974, "alt_km": 778.5916936937965, "timestamp": "2025-12-14T22:38:41.047546+00:00", "meta": {"OBJECT_NAME": "FENGYUN 1C DEB", "OBJECT_ID": "1999-025EQG", "EPOCH": "2025-12-04T09:59:10.811040", "MEAN_MOTION": 14.2524882, "ECCENTRICITY": 0.0223375, "INCLINATION": 98.6606, "RA_OF_ASC_NODE": 35.2993, "ARG_OF_PERICENTER": 95.5388, "MEAN_ANOMALY": 267.1312, "EPHEMERIS_TYPE": 0, "CLASSIFICATION_TYPE": "U", "NORAD_CAT_ID": 38135, "ELEMENT_SET_NO": 999, "REV_AT_EPOCH": 60922, "BSTAR": 0.00083169, "MEAN_MOTION_DOT": 2.494e-05, "MEAN_MOTION_DDOT": 0}, "tle": {"line1": "1 38135U 99025EQG 25338.41609735  .00002494  00000+0  83169-3 0  9999", "line2": "2 38135  98.6606  35.2993 0223375  95.5388 267.1312 14.25248820609225"}}, "geometry": {"type": "Point", "coordinates": [47.92195153069974, -14.268982507664422]}}, {"type": "Feature", "properties": {"norad_id": 38137, "name": "FENGYUN 1C DEB", "group": "fengyun-1c-debris", "lat": -1.5600133563457543, "lon": -148.60117013309767, "alt_km": 891.4607469431185, "timestamp": "2025-12-14T22:38:41.047557+00:00", "meta": {"OBJECT_NAME": "FENGYUN 1C DEB", "OBJECT_ID": "1999-025EQJ", "EPOCH": "2025-12-11T22:03:53.453088", "MEAN_MOTION": 14.06158007, "ECCENTRICITY": 0.0046494, "INCLINATION": 98.8649, "RA_OF_ASC_NODE": 28.6821, "ARG_OF_PERICENTER": 71.683, "MEAN_ANOMALY": 288.9388, "EPHEMERIS_TYPE": 0, "CLASSIFICATION_TYPE": "U", "NORAD_CAT_ID": 38137, "ELEMENT_SET_NO": 999, "REV_AT_EPOCH": 63697, "BSTAR": 0.00049172, "MEAN_MOTION_DOT": 7.73e-06, "MEAN_MOTION_DDOT": 0}, "tle": {"line1": "1 38137U 99025EQJ 25345.91936867  .00000773  00000+0  49172-3 0  9997", "line2": "2 38137  98.8649  28.6821 0046494  71.6830 288.9388 14.06158007636976"}}, "geometry": {"type": "Point", "coordinates": [-148.60117013309767, -1.5600133563457543]}}, {"type": "Feature", "properties": {"norad_id": 38143, "name": "FENGYUN 1C DEB", "group": "fengyun-1c-debris", "lat": -59.55492768632201, "lon": 60.54684181140295, "alt_km": 879.4197670741778, "timestamp": "2025-12-14T22:38:41.047567+00:00", "meta": {"OBJECT_NAME": "FENGYUN 1C DEB", "OBJECT_ID": "1999-025EQQ", "EPOCH": "2025-12-10T09:32:31.718976", "MEAN_MOTION": 14.04887386, "ECCENTRICITY": 0.00563123, "INCLINATION": 99.0315, "RA_OF_ASC_NODE": 40.3233, "ARG_OF_PERICENTER": 227.9602, "MEAN_ANOMALY": 131.6765, "EPHEMERIS_TYPE": 0, "CLASSIFICATION_TYPE": "U", "NORAD_CAT_ID": 38143, "ELEMENT_SET_NO": 999, "REV_AT_EPOCH": 60250, "BSTAR": 0.00083811483, "MEAN_MOTION_DOT": 1.321e-05, "MEAN_MOTION_DDOT": 0}, "tle": {"line1": "1 38143U 99025EQQ 25344.39758934  .00001321  00000+0  83811-3 0  9990", "line2": "2 38143  99.0315  40.3233 0056312 227.9602 131.6765 14.04887386602509"}}, "geometry": {"type": "Point", "coordinates": [60.54684181140295, -59.55492768632201]}}]}